OBJECT_NAME,OBJECT_ID,EPOCH,MEAN_MOTION,ECCENTRICITY,INCLINATION,RA_OF_ASC_NODE,ARG_OF_PERICENTER,MEAN_ANOMALY,EPHEMERIS_TYPE,CLASSIFICATION_TYPE,NORAD_CAT_ID,ELEMENT_SET_NO,REV_AT_EPOCH,BSTAR,MEAN_MOTION_DOT,MEAN_MOTION_DDOT
STARLINK-30966,2023-183T,2024-08-22T00:58:52.536576,15.02536822,.0000991,43.0029,231.6989,270.6663,89.4066,0,U,58454,999,4177,.10008E-3,.1149E-4,0
STARLINK-30935,2023-183U,2024-08-22T08:28:44.812416,15.02536878,.0000593,43.0001,229.7420,264.4800,95.5975,0,U,58455,999,4184,.12961E-3,.1548E-4,0
STARLINK-30960,2023-183V,2024-08-22T16:32:10.864032,15.02544739,.0000997,42.9988,227.9641,264.5414,95.5314,0,U,58456,999,4189,.23413E-3,.2961E-4,0
STARLINK-30958,2023-183W,2024-08-22T06:30:38.275776,15.02541804,.0001416,43.0006,229.9933,271.6932,88.3748,0,U,58457,999,4181,-.45198E-4,-.814E-5,0
STARLINK-30962,2023-183X,2024-08-22T17:05:33.623808,15.02547871,.0001459,43.0044,227.2844,270.2533,89.8142,0,U,58458,999,4169,.13383E-3,.1605E-4,0
STARLINK-30977,2023-183Y,2024-08-22T06:48:13.328640,15.02536461,.000092,43.0011,230.0791,292.4199,67.6546,0,U,58459,999,4181,.98568E-4,.1128E-4,0
GNOMES-4,2023-185A,2024-08-22T20:02:02.939136,15.01457245,.0017768,97.6055,301.0314,68.0190,292.2921,0,U,58462,999,3977,.9526E-3,.12302E-3,0
KORSAT 7,2023-185B,2024-08-22T20:40:39.736992,15.01938157,.0018064,97.6319,301.4423,79.4379,280.8880,0,U,58463,999,3978,.50178E-3,.6529E-4,0
KOYOH,2023-185C,2024-08-22T20:09:43.622208,15.05922483,.0010443,97.6158,301.9826,77.2417,282.9976,0,U,58464,999,3983,.75906E-3,.11001E-3,0
BANE,2023-185D,2024-08-22T20:38:46.540032,15.23357635,.0010152,97.4215,301.2896,59.5394,300.6845,0,U,58465,999,4025,.97761E-3,.23246E-3,0
UHETSAT,2023-185E,2024-08-22T19:56:14.058528,15.17755025,.0018977,97.4380,300.3657,128.0231,232.2719,0,U,58466,999,4017,.57362E-3,.11577E-3,0
LILIUM-1,2023-185F,2024-08-22T19:27:36.868032,15.22147181,.0011884,97.4201,301.1404,57.3374,302.9007,0,U,58467,999,4024,.56672E-3,.12962E-3,0
SPIRIT,2023-185G,2024-08-22T20:23:39.285600,15.22307005,.0012958,97.4197,301.1077,57.6698,302.5791,0,U,58468,999,4024,.10071E-2,.23238E-3,0
ION SCV-015,2023-185H,2024-08-22T19:43:29.085888,15.17604843,.0010641,97.5846,301.9800,284.3990,75.6062,0,U,58469,999,3984,.44442E-3,.8882E-4,0
ROBUSTA-1E (ENSO),2023-185J,2024-08-22T19:40:13.145376,15.26392291,.0011962,97.4202,301.9468,49.8635,310.3650,0,U,58470,999,4029,.1229E-2,.32072E-3,0
HAYASAT-1,2023-185K,2024-08-22T20:42:50.205312,15.29722694,.0010558,97.4194,302.4822,47.5544,312.6588,0,U,58471,999,4033,.15863E-2,.45899E-3,0
EIRSAT-1,2023-185L,2024-08-22T19:51:17.667648,15.27336213,.0011381,97.4196,302.0634,50.6840,309.5406,0,U,58472,999,4030,.12613E-2,.33871E-3,0
STARLINK-30947,2023-186A,2024-08-22T17:31:34.428576,15.02540833,.0001472,43.0022,252.1657,268.6845,91.3828,0,U,58473,999,4096,.84884E-4,.943E-5,0
STARLINK-30995,2023-186B,2024-08-22T05:22:54.314400,15.25885938,.0001785,43.0051,216.1668,261.2651,98.7998,0,U,58474,999,4152,-.95749E-3,-.25201E-3,0
STARLINK-30941,2023-186C,2024-08-22T09:23:21.146208,15.02527453,.0001246,43.0045,253.9221,265.7839,94.2861,0,U,58475,999,4096,.30062E-3,.3859E-4,0
STARLINK-30980,2023-186D,2024-08-22T07:42:50.408928,15.02544633,.0000966,43.0010,254.2574,242.5172,117.5572,0,U,58476,999,4095,.48929E-3,.6413E-4,0
STARLINK-30965,2023-186E,2024-08-22T17:51:09.210240,15.02532402,.0000662,42.9941,239.2562,176.8719,183.2128,0,U,58477,999,4111,.12941E-3,.1545E-4,0
STARLINK-30990,2023-186F,2024-08-22T07:37:59.959776,15.02571120,.0001718,43.0007,254.2321,272.7475,87.3171,0,U,58478,999,4101,-.10204E-2,-.13973E-3,0
STARLINK-30974,2023-186G,2024-08-22T01:09:41.791104,15.40708711,.0001278,43.0011,125.6993,296.8905,63.1821,0,U,58479,999,4255,.22822E-3,.9244E-4,0
STARLINK-30984,2023-186H,2024-08-22T08:06:37.706688,15.02534339,.0001378,43.0039,253.5213,268.4507,91.6178,0,U,58480,999,4096,.66244E-5,-.114E-5,0
STARLINK-30956,2023-186J,2024-08-22T06:54:30.417120,15.02540161,.0001298,43.0043,229.5896,276.0527,84.0168,0,U,58481,999,4123,.82667E-4,.913E-5,0
STARLINK-30997,2023-186K,2024-08-22T18:04:58.403136,15.02551923,.0000967,43.0016,251.4496,285.2466,74.8269,0,U,58482,999,4097,.50783E-3,.6666E-4,0
STARLINK-30994,2023-186L,2024-08-22T14:44:25.857888,15.25911383,.0000955,43.0068,200.8066,290.5704,69.5044,0,U,58483,999,4150,.56854E-4,.123E-4,0
STARLINK-30991,2023-186M,2024-08-22T17:36:11.948832,15.02548228,.0001153,43.0019,251.3220,267.8597,92.2114,0,U,58484,999,4097,.34968E-4,.269E-5,0
STARLINK-30979,2023-186N,2024-08-22T18:38:29.524704,15.02605625,.0000616,42.9999,251.6526,348.4906,11.5922,0,U,58485,999,4097,.14161E-2,.19013E-3,0
STARLINK-31005,2023-186P,2024-08-22T02:36:27.469728,15.02538366,.0001518,43.0011,255.2386,266.5729,93.4940,0,U,58486,999,4091,.26135E-4,.149E-5,0
STARLINK-30987,2023-186Q,2024-08-22T18:28:56.503488,15.02531139,.0001458,43.0020,251.6025,267.2319,92.8356,0,U,58487,999,4097,-.19023E-3,-.2772E-4,0
STARLINK-31000,2023-186R,2024-08-22T18:24:09.896544,15.02525721,.0001076,43.0045,251.5812,281.0939,78.9782,0,U,58488,999,4093,-.88331E-4,-.1396E-4,0
STARLINK-30993,2023-186S,2024-08-22T08:44:59.050176,15.02535170,.0002143,43.0033,253.7234,284.7845,75.2760,0,U,58489,999,4095,-.6124E-4,-.1031E-4,0
STARLINK-30978,2023-186T,2024-08-22T08:40:11.570592,15.02542864,.0001405,42.9988,253.6952,271.8610,88.2072,0,U,58490,999,4095,.33212E-3,.4286E-4,0
STARLINK-30953,2023-186U,2024-08-22T07:35:51.418176,15.25902730,.0001469,43.0045,214.1758,272.8062,87.2621,0,U,58491,999,4158,.51877E-5,-.122E-5,0
STARLINK-30986,2023-186V,2024-08-22T08:25:48.733536,15.02537613,.0001344,43.0053,253.6258,273.7444,86.3244,0,U,58492,999,4095,.57593E-4,.574E-5,0
STARLINK-30985,2023-186W,2024-08-22T17:55:22.438272,15.02545130,.0001257,43.0037,251.4309,273.3485,86.7214,0,U,58493,999,4098,.91851E-4,.1038E-4,0
STARLINK-30981,2023-186X,2024-08-22T08:16:13.478880,15.02537132,.0001475,43.0018,253.5703,278.8115,81.2560,0,U,58494,999,4095,.65141E-4,.676E-5,0
STARLINK-31002,2023-186Y,2024-08-22T17:45:47.667456,15.02535263,.0001199,43.0024,251.3808,262.4417,97.6289,0,U,58495,999,4118,.33917E-3,.4381E-4,0
2023-187A,2023-187A,2024-08-22T19:55:06.720096,14.80393405,.0013461,97.9833,311.3534,140.7721,219.4469,0,U,58496,999,3882,.1024E-2,.7784E-4,0
MISRSAT-2,2023-187B,2024-08-22T19:45:30.713760,14.79570105,.0012909,97.9847,311.2497,138.1817,222.0384,0,U,58497,999,3880,.60175E-3,.4461E-4,0
2023-187C,2023-187C,2024-08-22T19:56:19.655520,14.80266125,.0013011,97.9839,311.3679,138.7416,221.4781,0,U,58498,999,3881,.8904E-3,.6739E-4,0
DOORY-SAT,2023-188A,2024-08-22T20:37:32.847744,14.76674974,.0007479,46.9827,294.7457,129.5513,230.6042,0,U,58500,999,3879,.62889E-3,.4254E-4,0
2023-189A,2023-189A,2024-08-22T20:24:10.665216,15.23905477,.0015652,97.4629,241.6753,90.6149,269.6881,0,U,58502,999,3983,.39114E-3,.9411E-4,0
2023-189B,2023-189B,2024-08-22T19:26:06.700128,15.28828147,.0015327,97.4587,242.4566,93.5042,266.7951,0,U,58503,999,3988,.89613E-3,.25172E-3,0
2023-190A,2023-190A,2024-08-22T20:51:05.307552,13.39488152,.0002394,86.5070,202.0010,91.3524,268.7893,0,U,58505,999,3589,.13939E-3,.9E-6,0
STARLINK-31026,2023-191A,2024-08-22T10:59:48.715008,15.02542033,.0001221,43.0034,292.9442,270.6813,89.3889,0,U,58508,999,4055,.34602E-4,.264E-5,0
STARLINK-31020,2023-191B,2024-08-22T20:29:34.415520,15.02510117,.0001297,43.0031,291.6019,264.0074,96.0621,0,U,58509,999,4051,.15449E-2,.20713E-3,0
STARLINK-30989,2023-191C,2024-08-22T11:17:03.242688,15.02534783,.0000733,43.0012,292.1787,274.3110,85.7649,0,U,58510,999,4060,-.1503E-4,-.406E-5,0
STARLINK-30968,2023-191D,2024-08-22T11:12:15.387264,15.02531159,.0001077,43.0041,292.1548,268.9018,91.1701,0,U,58511,999,4056,.16269E-3,.1994E-4,0
STARLINK-30982,2023-191E,2024-08-22T20:41:49.657920,15.02635377,.0001378,43.0028,289.9583,259.2421,100.8266,0,U,58512,999,4054,-.14992E-2,-.2045E-3,0
STARLINK-30998,2023-191F,2024-08-22T20:37:02.003808,15.02537087,.0001105,43.0040,289.9292,267.7349,92.3366,0,U,58513,999,4065,.27872E-4,.173E-5,0
STARLINK-30983,2023-191G,2024-08-22T03:37:25.070304,15.02537791,.0001149,43.0032,293.2309,271.2304,88.8406,0,U,58514,999,4017,.65389E-4,.68E-5,0
STARLINK-31017,2023-191H,2024-08-22T04:41:56.944608,15.40690179,.0001316,42.9999,203.6612,245.6397,114.4322,0,U,58515,999,4156,.39597E-4,.135E-4,0
STARLINK-31028,2023-191J,2024-08-22T20:27:26.069184,15.02538939,.0001113,43.0032,289.8778,278.9408,81.1308,0,U,58516,999,4060,.94186E-4,.1069E-4,0
STARLINK-31011,2023-191K,2024-08-22T10:57:52.065504,15.02534101,.0001866,43.0038,292.0724,300.1407,59.9250,0,U,58517,999,4059,.11628E-3,.1367E-4,0
STARLINK-31021,2023-191L,2024-08-22T20:56:02.247936,15.02539259,.0001325,43.0020,289.1540,273.1685,86.9006,0,U,58518,999,4066,.52968E-3,.6959E-4,0
STARLINK-31010,2023-191M,2024-08-22T21:00:48.892896,15.02549684,.0000867,43.0010,289.1471,276.4382,83.6362,0,U,58519,999,4060,.16526E-3,.203E-4,0
STARLINK-31003,2023-191N,2024-08-22T20:22:38.696736,15.02537733,.0001147,42.9989,289.8493,284.4983,75.5732,0,U,58520,999,4065,.18443E-3,.2289E-4,0
STARLINK-31015,2023-191P,2024-08-22T20:17:51.484128,15.02535295,.0000061,43.0051,289.8383,131.5077,228.5771,0,U,58521,999,4059,.26213E-3,.3339E-4,0
STARLINK-31023,2023-191Q,2024-08-22T10:38:41.553600,15.02532862,.00006,43.0004,291.9685,271.9103,88.1671,0,U,58522,999,4056,.10098E-3,.1161E-4,0
STARLINK-30932,2023-191R,2024-08-22T10:33:53.660160,15.02541839,.0001167,43.0023,291.9449,276.7946,83.2764,0,U,58523,999,4051,.16156E-3,.198E-4,0
STARLINK-30992,2023-191S,2024-08-22T10:29:05.900640,15.02534512,.0001683,43.0038,291.9196,270.6311,89.4338,0,U,58524,999,4042,.32885E-3,.4241E-4,0
STARLINK-30948,2023-191T,2024-08-22T10:24:18.135072,15.02540525,.0001502,43.0030,291.8944,276.0562,84.0110,0,U,58525,999,4056,.10171E-3,.1171E-4,0
STARLINK-31013,2023-191U,2024-08-22T10:19:30.515520,15.02538429,.0001393,43.0070,291.8707,273.5313,86.5370,0,U,58526,999,4056,.56411E-4,.558E-5,0
STARLINK-31001,2023-191V,2024-08-22T05:08:19.624128,15.02538899,.0001035,43.0023,292.7452,266.4283,93.6441,0,U,58527,999,4053,.58307E-4,.584E-5,0
